[
    {
        "Altitude(m)": 604221.1989298548,
        "Argument of Periapsis(deg)": 0.0,
        "Eccentricity": 0.0,
        "Inclination(deg)": 60.0,
        "Latitude(deg)": 14.117215074851098,
        "Longitude(deg)": -31.66587189927863,
        "Mean Anomaly(deg)": 16.363599999999998,
        "RAAN(deg)": 60.0,
        "Satellite Name": "Test1 265",
        "Satellite Number": 265,
        "Semi-Major Axis(m)": 6980739.136638005,
        "Time(s)": 0
    },
    {
        "Altitude(m)": 604235.3397505309,
        "Argument of Periapsis(deg)": 0.00010418945913296404,
        "Eccentricity": 0.0,
        "Inclination(deg)": 60.0,
        "Latitude(deg)": 14.65161236113079,
        "Longitude(deg)": -31.37742601054309,
        "Mean Anomaly(deg)": 16.983706145461838,
        "RAAN(deg)": 59.99957995086026,
        "Satellite Name": "Test1 265",
        "Satellite Number": 265,
        "Semi-Major Axis(m)": 6980739.136638005,
        "Time(s)": 10
    }
]